satellite_id,OBJECT_NAME,OBJECT_ID,EPOCH,MEAN_MOTION,ECCENTRICITY,INCLINATION,RA_OF_ASC_NODE,ARG_OF_PERICENTER,MEAN_ANOMALY,EPHEMERIS_TYPE,CLASSIFICATION_TYPE,NORAD_CAT_ID,ELEMENT_SET_NO,REV_AT_EPOCH,BSTAR,MEAN_MOTION_DOT,MEAN_MOTION_DDOT,operator,orbit_type,eccentricity_risk
234,SES-6,2013-026A,2026-06-20T09:12:58.502016,1.0027229,0.0002555,0.0186,337.8981,114.3836,274.0592,0,U,39172,999,4775,0,-2.66e-06,0,GEO,GEO,0.2554999999999999
235,IRNSS-1A,2013-034A,2026-06-18T21:29:26.733984,1.00275723,0.00175894,35.7241,63.8469,183.2529,37.3106,0,U,39199,999,4738,0,5.1e-07,0,GEO,NON_GEO,1.7589400000000002
236,MUOS-2,2013-036A,2026-06-20T08:30:53.722080,1.00273721,0.005124,5.0011,45.5331,177.3818,345.3547,0,U,39206,999,4722,0,-1.9e-07,0,GEO,NON_GEO,5.124
237,ALPHASAT,2013-038A,2026-06-20T07:48:56.566080,1.00272303,0.0001799,2.999,1.4107,89.2089,320.0084,0,U,39215,999,4405,0,1.28e-06,0,GEO,GEO,0.1799
238,INSAT-3D,2013-038B,2026-06-20T06:36:03.708288,1.00267986,6.38e-05,1.9351,82.5055,326.5441,87.9271,0,U,39216,999,4711,0,-3.45e-06,0,GEO,GEO,0.0638
239,WGS F6 (USA 244),2013-041A,2026-06-20T00:58:38.646048,1.00271592,1.593e-05,0.0193,12.6218,358.5435,136.5486,0,U,39222,999,4609,0,8.4e-07,0,GEO,GEO,0.01593
240,ES'HAIL 1,2013-044A,2026-06-20T04:23:48.221664,1.00270066,0.00019482,0.0469,356.4073,84.9069,278.502,0,U,39233,999,4665,0,1.38e-06,0,GEO,GEO,0.19482
241,GSAT-7,2013-044B,2026-06-20T09:45:36.464256,1.00270906,0.0002973,0.092,92.8909,191.2522,204.8299,0,U,39234,999,4529,0,-8.1e-07,0,GEO,GEO,0.2973
242,AMOS-4,2013-045A,2026-06-20T02:52:21.804384,1.00272245,0.00025712,0.0115,299.3424,122.6433,314.4515,0,U,39237,999,4698,0,2e-08,0,GEO,GEO,0.25712
243,AEHF-3 (USA 246),2013-050A,2026-06-20T09:28:26.669568,1.00273393,0.0087858,5.301,67.1548,188.0159,31.2798,0,U,39256,999,4568,0,2.3e-07,0,GEO,NON_GEO,8.7858
244,ASTRA 2E,2013-056A,2026-06-20T07:49:56.472384,1.00274051,0.000279,0.0717,317.8743,144.5096,312.1587,0,U,39285,999,4644,0,1.46e-06,0,GEO,GEO,0.279
245,FM-6,2013-058A,2026-06-20T08:46:26.645952,1.00271043,0.00014,0.0369,53.5945,119.558,110.7383,0,U,39360,999,4610,0,0.0,0,GEO,GEO,0.1399999999999999
246,RADUGA-1M 3,2013-062A,2026-06-18T19:09:38.685888,1.00273348,0.00018039,5.9627,72.3351,267.8367,249.2637,0,U,39375,999,4612,0,1.44e-06,0,GEO,NON_GEO,0.18039
247,SES-8,2013-071A,2026-06-20T08:08:58.753824,1.00271927,0.0002743,0.0166,297.5628,151.4996,36.7317,0,U,39460,999,4446,0,-2.74e-06,0,GEO,GEO,0.2743
248,INMARSAT 5-F1,2013-073A,2026-06-20T00:29:49.235136,1.00271043,5.858e-05,0.0172,24.3286,304.0026,9.9817,0,U,39476,999,4560,0,2.3e-07,0,GEO,GEO,0.05858
249,TKSAT-1 (TUPAC KATARI),2013-075A,2026-06-20T08:59:37.281120,1.00273277,0.0002607,0.0366,192.378,248.3219,235.5765,0,U,39481,999,4563,0,-1.99e-06,0,GEO,GEO,0.2607
250,EXPRESS-AM5,2013-077A,2026-06-21T13:56:59.060832,1.00271926,2.78e-05,0.0148,293.4123,48.4894,277.1456,0,U,39487,999,4640,0,-2.81e-06,0,GEO,GEO,0.0278
251,GSAT-14,2014-001A,2026-06-20T09:45:36.464256,1.00271396,7.94e-05,0.0443,96.3297,170.7037,221.965,0,U,39498,999,4541,0,-8.1e-07,0,GEO,GEO,0.0794
252,THAICOM 6,2014-002A,2026-06-20T09:46:51.345408,1.00272328,0.0004448,0.0737,106.679,4.5118,22.6433,0,U,39500,999,4549,0,-1.26e-06,0,GEO,GEO,0.4448
253,TDRS 12,2014-004A,2026-06-20T09:12:43.527168,1.00265941,0.0003091,3.9809,19.1631,194.6527,151.8973,0,U,39504,999,4430,0,-2.77e-06,0,GEO,GEO,0.3091
254,ABS-2,2014-006A,2026-06-20T09:45:51.439104,1.0027113,0.0003823,0.0181,333.2577,99.9811,56.7515,0,U,39508,999,4531,0,-9e-07,0,GEO,GEO,0.3823
255,ATHENA-FIDUS,2014-006B,2026-06-20T06:09:57.041280,1.00270703,0.0001319,0.037,95.065,351.4707,312.22,0,U,39509,999,4511,0,1.49e-06,0,GEO,GEO,0.1319
256,TURKSAT 4A,2014-007A,2026-06-20T04:28:32.767104,1.00267919,0.0001004,0.0668,288.2837,16.0389,73.2267,0,U,39522,999,4499,0,1.41e-06,0,GEO,GEO,0.1004
257,AMAZONAS 4A,2014-011A,2026-06-20T09:03:21.922848,1.00272928,0.0003921,0.0587,178.4109,293.4493,218.5631,0,U,39616,999,4474,0,-2.57e-06,0,GEO,GEO,0.3921
258,ASTRA 5B,2014-011B,2026-06-20T07:48:34.102080,1.00268988,0.0002057,0.0635,312.591,113.5023,343.0777,0,U,39617,999,4469,0,1.32e-06,0,GEO,GEO,0.2057
259,IRNSS-1B,2014-017A,2026-06-19T18:16:25.595040,1.00277178,0.00231505,28.9179,240.3593,189.6008,167.3236,0,U,39635,999,4481,0,1.09e-06,0,GEO,NON_GEO,2.31505
260,LUCH-5V,2014-023A,2026-06-21T04:07:38.534592,1.00273075,0.0001946,5.1436,69.7087,48.4046,307.9045,0,U,39727,999,4439,0,-2.73e-06,0,GEO,NON_GEO,0.1946
261,KAZSAT-3,2014-023B,2026-06-19T23:44:46.166208,1.00274079,3.353e-05,0.0153,31.8994,33.0502,257.9533,0,U,39728,999,4248,0,5.5e-07,0,GEO,GEO,0.03353
262,ASIASAT 8 (AMOS-7),2014-046A,2026-06-20T09:54:35.601120,1.00272598,0.0001402,0.0253,67.9261,19.3197,75.3344,0,U,40107,999,10218,0,-3.37e-06,0,GEO,GEO,0.1402
263,ASIASAT 6,2014-052A,2026-06-21T13:21:10.958976,1.00271631,8.73e-05,0.0406,85.5918,13.7399,130.6248,0,U,40141,999,4312,0,-3.63e-06,0,GEO,GEO,0.0872999999999999
